{
  "type": "FeatureCollection",
  "features": [
    {
      "type": "Feature",
      "properties": {
        "norad_id": 34492,
        "name": "IRIDIUM 33 DEB",
        "group": "iridium-33-debris",
        "lat": 66.1686258182001,
        "lon": 147.86195972051905,
        "alt_km": 894.8839568726426,
        "timestamp": "2025-12-09T14:52:26.547645+00:00",
        "meta_object_name": "IRIDIUM 33 DEB",
        "meta_object_id": "1997-051GH",
        "meta_epoch": "2025-12-07T23:50:44.784960",
        "meta_mean_motion": 14.25534668,
        "meta_eccentricity": 0.0189621,
        "meta_inclination": 86.4724,
        "meta_ra_of_asc_node": 336.5463,
        "meta_arg_of_pericenter": 253.6464,
        "meta_mean_anomaly": 161.0806,
        "meta_ephemeris_type": 0,
        "meta_classification_type": "U",
        "meta_norad_cat_id": 34492,
        "meta_element_set_no": 999,
        "meta_rev_at_epoch": 84991,
        "meta_bstar": 0.0068533726,
        "meta_mean_motion_dot": 0.00019616,
        "meta_mean_motion_ddot": 0,
        "tle_line1": "1 34492U 97051GH  25341.99357390  .00019616  00000+0  68534-2 0  9994",
        "tle_line2": "2 34492  86.4724 336.5463 0189621 253.6464 161.0806 14.25534668849919"
      },
      "geometry": {
        "type": "Point",
        "coordinates": [
          147.86195972051905,
          66.1686258182001
        ]
      }
    },
    {
      "type": "Feature",
      "properties": {
        "norad_id": 34497,
        "name": "IRIDIUM 33 DEB",
        "group": "iridium-33-debris",
        "lat": -26.874758788254493,
        "lon": 51.8442277309853,
        "alt_km": 751.5889293611799,
        "timestamp": "2025-12-09T14:52:26.547655+00:00",
        "meta_object_name": "IRIDIUM 33 DEB",
        "meta_object_id": "1997-051GN",
        "meta_epoch": "2025-12-09T05:09:24.196896",
        "meta_mean_motion": 14.27438084,
        "meta_eccentricity": 0.00791646,
        "meta_inclination": 86.2781,
        "meta_ra_of_asc_node": 53.9075,
        "meta_arg_of_pericenter": 351.0726,
        "meta_mean_anomaly": 63.0332,
        "meta_ephemeris_type": 0,
        "meta_classification_type": "U",
        "meta_norad_cat_id": 34497,
        "meta_element_set_no": 999,
        "meta_rev_at_epoch": 86833,
        "meta_bstar": 0.00097039794,
        "meta_mean_motion_dot": 2.479e-05,
        "meta_mean_motion_ddot": 0,
        "tle_line1": "1 34497U 97051GN  25343.21486339  .00002479  00000+0  97040-3 0  9996",
        "tle_line2": "2 34497  86.2781  53.9075 0079164 351.0726  63.0332 14.27438084868337"
      },
      "geometry": {
        "type": "Point",
        "coordinates": [
          51.8442277309853,
          -26.874758788254493
        ]
      }
    },
    {
      "type": "Feature",
      "properties": {
        "norad_id": 34508,
        "name": "IRIDIUM 33 DEB",
        "group": "iridium-33-debris",
        "lat": 8.363064277718152,
        "lon": 104.50037474585564,
        "alt_km": 812.5828184676566,
        "timestamp": "2025-12-09T14:52:26.547666+00:00",
        "meta_object_name": "IRIDIUM 33 DEB",
        "meta_object_id": "1997-051GZ",
        "meta_epoch": "2025-12-08T20:28:07.821120",
        "meta_mean_motion": 14.38371181,
        "meta_eccentricity": 0.0065865,
        "meta_inclination": 86.3703,
        "meta_ra_of_asc_node": 104.2908,
        "meta_arg_of_pericenter": 185.485,
        "meta_mean_anomaly": 174.5635,
        "meta_ephemeris_type": 0,
        "meta_classification_type": "U",
        "meta_norad_cat_id": 34508,
        "meta_element_set_no": 999,
        "meta_rev_at_epoch": 87253,
        "meta_bstar": 0.0019764,
        "meta_mean_motion_dot": 6.195e-05,
        "meta_mean_motion_ddot": 0,
        "tle_line1": "1 34508U 97051GZ  25342.85286830  .00006195  00000+0  19764-2 0  9997",
        "tle_line2": "2 34508  86.3703 104.2908 0065865 185.4850 174.5635 14.38371181872537"
      },
      "geometry": {
        "type": "Point",
        "coordinates": [
          104.50037474585564,
          8.363064277718152
        ]
      }
    },
    {
      "type": "Feature",
      "properties": {
        "norad_id": 34521,
        "name": "IRIDIUM 33 DEB",
        "group": "iridium-33-debris",
        "lat": -85.06461350819869,
        "lon": -100.92763865008786,
        "alt_km": 689.1687853029161,
        "timestamp": "2025-12-09T14:52:26.547676+00:00",
        "meta_object_name": "IRIDIUM 33 DEB",
        "meta_object_id": "1997-051HN",
        "meta_epoch": "2025-12-09T03:48:43.131456",
        "meta_mean_motion": 14.63316312,
        "meta_eccentricity": 0.00012181,
        "meta_inclination": 86.3799,
        "meta_ra_of_asc_node": 32.1245,
        "meta_arg_of_pericenter": 240.0479,
        "meta_mean_anomaly": 120.0612,
        "meta_ephemeris_type": 0,
        "meta_classification_type": "U",
        "meta_norad_cat_id": 34521,
        "meta_element_set_no": 999,
        "meta_rev_at_epoch": 88420,
        "meta_bstar": 0.0010832091,
        "meta_mean_motion_dot": 5.611e-05,
        "meta_mean_motion_ddot": 0,
        "tle_line1": "1 34521U 97051HN  25343.15883254  .00005611  00000+0  10832-2 0  9998",
        "tle_line2": "2 34521  86.3799  32.1245 0001218 240.0479 120.0612 14.63316312884208"
      },
      "geometry": {
        "type": "Point",
        "coordinates": [
          -100.92763865008786,
          -85.06461350819869
        ]
      }
    },
    {
      "type": "Feature",
      "properties": {
        "norad_id": 34525,
        "name": "IRIDIUM 33 DEB",
        "group": "iridium-33-debris",
        "lat": -45.051785040295336,
        "lon": 44.532293963819505,
        "alt_km": 759.6948598229565,
        "timestamp": "2025-12-09T14:52:26.547687+00:00",
        "meta_object_name": "IRIDIUM 33 DEB",
        "meta_object_id": "1997-051HS",
        "meta_epoch": "2025-12-08T10:52:50.630592",
        "meta_mean_motion": 14.42890463,
        "meta_eccentricity": 0.00066346,
        "meta_inclination": 86.373,
        "meta_ra_of_asc_node": 48.6732,
        "meta_arg_of_pericenter": 105.0702,
        "meta_mean_anomaly": 275.0516,
        "meta_ephemeris_type": 0,
        "meta_classification_type": "U",
        "meta_norad_cat_id": 34525,
        "meta_element_set_no": 999,
        "meta_rev_at_epoch": 88026,
        "meta_bstar": 0.00067150553,
        "meta_mean_motion_dot": 2.262e-05,
        "meta_mean_motion_ddot": 0,
        "tle_line1": "1 34525U 97051HS  25342.45336378  .00002262  00000+0  67151-3 0  9990",
        "tle_line2": "2 34525  86.3730  48.6732 0006634 105.0702 275.0516 14.42890463880263"
      },
      "geometry": {
        "type": "Point",
        "coordinates": [
          44.532293963819505,
          -45.051785040295336
        ]
      }
    },
    {
      "type": "Feature",
      "properties": {
        "norad_id": 34529,
        "name": "IRIDIUM 33 DEB",
        "group": "iridium-33-debris",
        "lat": -55.340604116003725,
        "lon": -137.981750007033,
        "alt_km": 761.518656702614,
        "timestamp": "2025-12-09T14:52:26.547697+00:00",
        "meta_object_name": "IRIDIUM 33 DEB",
        "meta_object_id": "1997-051HW",
        "meta_epoch": "2025-12-09T03:46:56.686656",
        "meta_mean_motion": 14.40611183,
        "meta_eccentricity": 0.00043514,
        "meta_inclination": 86.3644,
        "meta_ra_of_asc_node": 36.9388,
        "meta_arg_of_pericenter": 189.2574,
        "meta_mean_anomaly": 170.8546,
        "meta_ephemeris_type": 0,
        "meta_classification_type": "U",
        "meta_norad_cat_id": 34529,
        "meta_element_set_no": 999,
        "meta_rev_at_epoch": 88090,
        "meta_bstar": 0.00017454195,
        "meta_mean_motion_dot": 5.76e-06,
        "meta_mean_motion_ddot": 0,
        "tle_line1": "1 34529U 97051HW  25343.15760054  .00000576  00000+0  17454-3 0  9991",
        "tle_line2": "2 34529  86.3644  36.9388 0004351 189.2574 170.8546 14.40611183880907"
      },
      "geometry": {
        "type": "Point",
        "coordinates": [
          -137.981750007033,
          -55.340604116003725
        ]
      }
    },
    {
      "type": "Feature",
      "properties": {
        "norad_id": 34538,
        "name": "IRIDIUM 33 DEB",
        "group": "iridium-33-debris",
        "lat": 49.97076723036413,
        "lon": 11.368161580974034,
        "alt_km": 737.8082459384977,
        "timestamp": "2025-12-09T14:52:26.547708+00:00",
        "meta_object_name": "IRIDIUM 33 DEB",
        "meta_object_id": "1997-051JF",
        "meta_epoch": "2025-12-09T06:51:33.177024",
        "meta_mean_motion": 14.42616834,
        "meta_eccentricity": 0.00332009,
        "meta_inclination": 86.2773,
        "meta_ra_of_asc_node": 7.0688,
        "meta_arg_of_pericenter": 339.7636,
        "meta_mean_anomaly": 136.8152,
        "meta_ephemeris_type": 0,
        "meta_classification_type": "U",
        "meta_norad_cat_id": 34538,
        "meta_element_set_no": 999,
        "meta_rev_at_epoch": 87706,
        "meta_bstar": 0.001409867,
        "meta_mean_motion_dot": 4.732e-05,
        "meta_mean_motion_ddot": 0,
        "tle_line1": "1 34538U 97051JF  25343.28580066  .00004732  00000+0  14099-2 0  9997",
        "tle_line2": "2 34538  86.2773   7.0688 0033200 339.7636 136.8152 14.42616834877065"
      },
      "geometry": {
        "type": "Point",
        "coordinates": [
          11.368161580974034,
          49.97076723036413
        ]
      }
    }
  ]
}